start=new Date('2022-12-21T00:00:00.000Z').valueOf();
sats=[{"PERIAPSIS":"347.460","APOAPSIS":"351.990","INCLINATION":"53.2142","CLASSIFICATION_TYPE":"U","OBJECT_NAME":"STARLINK-5204","ELEMENT_SET_NO":"999","ECCENTRICITY":"0.00033670","OBJECT_TYPE":"PAYLOAD","MEAN_ELEMENT_THEORY":"SGP4","SEMIMAJOR_AXIS":"6727.860","REV_AT_EPOCH":"1014","OBJECT_ID":"2022-136BC","RCS_SIZE":"LARGE","COUNTRY_CODE":"US","PERIOD":"91.532","TLE_LINE1":"1 54101U 22136BC  22354.87448791  .00002896  00000-0  25050-4 0  9990","SITE":"AFETR","ARG_OF_PERICENTER":"11.2434","MEAN_MOTION":"15.73212411","REF_FRAME":"TEME","FILE":"3714313","TIME_SYSTEM":"UTC","NORAD_CAT_ID":"54101","LAUNCH_DATE":"2022-10-20","GP_ID":"221048510","DECAY_DATE":null,"RA_OF_ASC_NODE":"204.6822","EPOCH":"2022-12-20T20:59:15.755424","MEAN_MOTION_DOT":"0.00002896","BSTAR":"0.00002505000000","EPHEMERIS_TYPE":"0","MEAN_ANOMALY":"348.8661","MEAN_MOTION_DDOT":"0.0000000000000","CENTER_NAME":"EARTH","TLE_LINE2":"2 54101  53.2142 204.6822 0003367  11.2434 348.8661 15.73212411 10147"},{"SITE":"AFETR","ARG_OF_PERICENTER":"75.7684","TLE_LINE1":"1 54102U 22136BD  22354.58334491 -.01169933  00000-0 -46232-1 0  9991","PERIOD":"94.258","COUNTRY_CODE":"US","RCS_SIZE":"LARGE","REV_AT_EPOCH":"130","OBJECT_ID":"2022-136BD","SEMIMAJOR_AXIS":"6860.772","MEAN_ELEMENT_THEORY":"SGP4","OBJECT_TYPE":"PAYLOAD","ECCENTRICITY":"0.00013500","ELEMENT_SET_NO":"999","OBJECT_NAME":"STARLINK-5179","CLASSIFICATION_TYPE":"U","INCLINATION":"53.2171","APOAPSIS":"483.563","PERIAPSIS":"481.711","TLE_LINE2":"2 54102  53.2171 209.4727 0001350  75.7684 202.9905 15.27718363  1304","CENTER_NAME":"EARTH","MEAN_MOTION_DDOT":"0.0000000000000","MEAN_ANOMALY":"202.9905","EPHEMERIS_TYPE":"0","EPOCH":"2022-12-20T14:00:01.000224","MEAN_MOTION_DOT":"-0.01169933","BSTAR":"-0.04623200000000","RA_OF_ASC_NODE":"209.4727","DECAY_DATE":null,"GP_ID":"221029498","NORAD_CAT_ID":"54102","LAUNCH_DATE":"2022-10-20","FILE":"3713130","TIME_SYSTEM":"UTC","REF_FRAME":"TEME","MEAN_MOTION":"15.27718363"},{"MEAN_MOTION_DDOT":"0.0000000000000","CENTER_NAME":"EARTH","TLE_LINE2":"2 54103  53.2148 204.6767 0002938  16.5639 343.5476 15.73183146 10149","MEAN_MOTION_DOT":"-0.00001320","EPOCH":"2022-12-20T20:59:08.143584","BSTAR":"-0.00000497340000","EPHEMERIS_TYPE":"0","MEAN_ANOMALY":"343.5476","DECAY_DATE":null,"RA_OF_ASC_NODE":"204.6767","LAUNCH_DATE":"2022-10-20","NORAD_CAT_ID":"54103","GP_ID":"221048363","TIME_SYSTEM":"UTC","FILE":"3714313","REF_FRAME":"TEME","MEAN_MOTION":"15.73183146","ARG_OF_PERICENTER":"16.5639","SITE":"AFETR","RCS_SIZE":"LARGE","COUNTRY_CODE":"US","PERIOD":"91.534","TLE_LINE1":"1 54103U 22136BE  22354.87439981 -.00001320  00000-0 -49734-5 0  9992","SEMIMAJOR_AXIS":"6727.943","REV_AT_EPOCH":"1014","OBJECT_ID":"2022-136BE","MEAN_ELEMENT_THEORY":"SGP4","OBJECT_NAME":"STARLINK-5200","ECCENTRICITY":"0.00029380","ELEMENT_SET_NO":"999","OBJECT_TYPE":"PAYLOAD","CLASSIFICATION_TYPE":"U","PERIAPSIS":"347.832","APOAPSIS":"351.785","INCLINATION":"53.2148"},{"DECAY_DATE":null,"RA_OF_ASC_NODE":"204.6804","EPHEMERIS_TYPE":"0","BSTAR":"-0.00000931910000","MEAN_MOTION_DOT":"-0.00001933","EPOCH":"2022-12-20T20:58:56.255808","MEAN_ANOMALY":"343.4166","CENTER_NAME":"EARTH","MEAN_MOTION_DDOT":"0.0000000000000","TLE_LINE2":"2 54104  53.2135 204.6804 0003188  16.6959 343.4166 15.73222339 10145","MEAN_MOTION":"15.73222339","REF_FRAME":"TEME","FILE":"3714323","TIME_SYSTEM":"UTC","LAUNCH_DATE":"2022-10-20","NORAD_CAT_ID":"54104","GP_ID":"221048527","MEAN_ELEMENT_THEORY":"SGP4","SEMIMAJOR_AXIS":"6727.831","OBJECT_ID":"2022-136BF","REV_AT_EPOCH":"1014","COUNTRY_CODE":"US","RCS_SIZE":"LARGE","PERIOD":"91.532","TLE_LINE1":"1 54104U 22136BF  22354.87426222 -.00001933  00000-0 -93191-5 0  9993","ARG_OF_PERICENTER":"16.6959","SITE":"AFETR","PERIAPSIS":"347.552","INCLINATION":"53.2135","APOAPSIS":"351.841","CLASSIFICATION_TYPE":"U","ECCENTRICITY":"0.00031880","ELEMENT_SET_NO":"999","OBJECT_NAME":"STARLINK-5203","OBJECT_TYPE":"PAYLOAD"},{"COUNTRY_CODE":"US","RCS_SIZE":"LARGE","PERIOD":"95.436","TLE_LINE1":"1 54157U 22141A   22354.43962569  .00009360  00000-0  60502-3 0  9996","SITE":"AFWTR","ARG_OF_PERICENTER":"52.1282","MEAN_ELEMENT_THEORY":"SGP4","SEMIMAJOR_AXIS":"6917.812","REV_AT_EPOCH":"829","OBJECT_ID":"2022-141A","CLASSIFICATION_TYPE":"U","ECCENTRICITY":"0.00017430","ELEMENT_SET_NO":"999","OBJECT_NAME":"STARLINK-5290","OBJECT_TYPE":"PAYLOAD","PERIAPSIS":"538.472","INCLINATION":"53.2172","APOAPSIS":"540.883","EPHEMERIS_TYPE":"0","EPOCH":"2022-12-20T10:33:03.659616","MEAN_MOTION_DOT":"0.00009360","BSTAR":"0.00060502000000","MEAN_ANOMALY":"307.9867","CENTER_NAME":"EARTH","MEAN_MOTION_DDOT":"0.0000000000000","TLE_LINE2":"2 54157  53.2172 250.0794 0001743  52.1282 307.9867 15.08862262  8295","DECAY_DATE":null,"RA_OF_ASC_NODE":"250.0794","FILE":"3713130","TIME_SYSTEM":"UTC","NORAD_CAT_ID":"54157","LAUNCH_DATE":"2022-10-28","GP_ID":"221030357","MEAN_MOTION":"15.08862262","REF_FRAME":"TEME"},{"GP_ID":"221032843","NORAD_CAT_ID":"54158","LAUNCH_DATE":"2022-10-28","TIME_SYSTEM":"UTC","FILE":"3713292","REF_FRAME":"TEME","MEAN_MOTION":"15.08856841","TLE_LINE2":"2 54158  53.2173 248.9356 0001738  56.0594 304.0564 15.08856841  8333","MEAN_MOTION_DDOT":"0.0000000000000","CENTER_NAME":"EARTH","MEAN_ANOMALY":"304.0564","EPOCH":"2022-12-20T17:05:12.282144","MEAN_MOTION_DOT":"0.00000899","BSTAR":"0.00007454900000","EPHEMERIS_TYPE":"0","RA_OF_ASC_NODE":"248.9356","DECAY_DATE":null,"OBJECT_TYPE":"PAYLOAD","OBJECT_NAME":"STARLINK-5297","ELEMENT_SET_NO":"999","ECCENTRICITY":"0.00017380","CLASSIFICATION_TYPE":"U","APOAPSIS":"540.896","INCLINATION":"53.2173","PERIAPSIS":"538.492","SITE":"AFWTR","ARG_OF_PERICENTER":"56.0594","PERIOD":"95.436","TLE_LINE1":"1 54158U 22141B   22354.71194771  .00000899  00000-0  74549-4 0  9995","RCS_SIZE":"LARGE","COUNTRY_CODE":"US","OBJECT_ID":"2022-141B","REV_AT_EPOCH":"833","SEMIMAJOR_AXIS":"6917.829","MEAN_ELEMENT_THEORY":"SGP4"},{"RA_OF_ASC_NODE":"249.1754","DECAY_DATE":null,"TLE_LINE2":"2 54159  53.2173 249.1754 0001229 110.5364  85.5546 15.08788804  1309","MEAN_MOTION_DDOT":"0.0000000000000","CENTER_NAME":"EARTH","MEAN_ANOMALY":"85.5546","BSTAR":"0.00357290000000","MEAN_MOTION_DOT":"0.00056954","EPOCH":"2022-12-20T14:00:01.000224","EPHEMERIS_TYPE":"0","REF_FRAME":"TEME","MEAN_MOTION":"15.08788804","GP_ID":"221029504","NORAD_CAT_ID":"54159","LAUNCH_DATE":"2022-10-28","TIME_SYSTEM":"UTC","FILE":"3713130","REV_AT_EPOCH":"130","OBJECT_ID":"2022-141C","SEMIMAJOR_AXIS":"6918.037","MEAN_ELEMENT_THEORY":"SGP4","ARG_OF_PERICENTER":"110.5364","SITE":"AFWTR","TLE_LINE1":"1 54159U 22141C   22354.58334491  .00056954  00000-0  35729-2 0  9994","PERIOD":"95.441","RCS_SIZE":"LARGE","COUNTRY_CODE":"US","APOAPSIS":"540.752","INCLINATION":"53.2173","PERIAPSIS":"539.052","OBJECT_TYPE":"PAYLOAD","OBJECT_NAME":"STARLINK-5294","ELEMENT_SET_NO":"999","ECCENTRICITY":"0.00012290","CLASSIFICATION_TYPE":"U"},{"RA_OF_ASC_NODE":"238.2424","DECAY_DATE":null,"MEAN_ANOMALY":"354.6196","EPOCH":"2022-12-20T17:16:11.529696","MEAN_MOTION_DOT":"-0.00003686","BSTAR":"-0.00002182000000","EPHEMERIS_TYPE":"0","TLE_LINE2":"2 54160  53.2162 238.2424 0002852   5.4855 354.6196 15.73210567  8487","MEAN_MOTION_DDOT":"0.0000000000000","CENTER_NAME":"EARTH","MEAN_MOTION":"15.73210567","REF_FRAME":"TEME","FILE":"3713292","TIME_SYSTEM":"UTC","GP_ID":"221033313","NORAD_CAT_ID":"54160","LAUNCH_DATE":"2022-10-28","MEAN_ELEMENT_THEORY":"SGP4","REV_AT_EPOCH":"848","OBJECT_ID":"2022-141D","SEMIMAJOR_AXIS":"6727.865","TLE_LINE1":"1 54160U 22141D   22354.71957789 -.00003686  00000-0 -21820-4 0  9997","PERIOD":"91.533","RCS_SIZE":"LARGE","COUNTRY_CODE":"US","ARG_OF_PERICENTER":"5.4855","SITE":"AFWTR","APOAPSIS":"351.649","INCLINATION":"53.2162","PERIAPSIS":"347.811","CLASSIFICATION_TYPE":"U","OBJECT_TYPE":"PAYLOAD","OBJECT_NAME":"STARLINK-5233","ELEMENT_SET_NO":"999","ECCENTRICITY":"0.00028520"},{"DECAY_DATE":null,"RA_OF_ASC_NODE":"250.1012","CENTER_NAME":"EARTH","MEAN_MOTION_DDOT":"0.0000000000000","TLE_LINE2":"2 54161  53.2177 250.1012 0001882  49.7903 310.3254 15.08849892  8297","EPHEMERIS_TYPE":"0","BSTAR":"0.00018005000000","MEAN_MOTION_DOT":"0.00002579","EPOCH":"2022-12-20T10:38:21.651360","MEAN_ANOMALY":"310.3254","REF_FRAME":"TEME","MEAN_MOTION":"15.08849892","LAUNCH_DATE":"2022-10-28","NORAD_CAT_ID":"54161","GP_ID":"221030784","TIME_SYSTEM":"UTC","FILE":"3713130","SEMIMAJOR_AXIS":"6917.850","OBJECT_ID":"2022-141E","REV_AT_EPOCH":"829","MEAN_ELEMENT_THEORY":"SGP4","ARG_OF_PERICENTER":"49.7903","SITE":"AFWTR","COUNTRY_CODE":"US","RCS_SIZE":"LARGE","PERIOD":"95.437","TLE_LINE1":"1 54161U 22141E   22354.44330615  .00002579  00000-0  18005-3 0  9999","PERIAPSIS":"538.413","INCLINATION":"53.2177","APOAPSIS":"541.017","ELEMENT_SET_NO":"999","ECCENTRICITY":"0.00018820","OBJECT_NAME":"STARLINK-5269","OBJECT_TYPE":"PAYLOAD","CLASSIFICATION_TYPE":"U"},{"SEMIMAJOR_AXIS":"6917.827","OBJECT_ID":"2022-141F","REV_AT_EPOCH":"829","MEAN_ELEMENT_THEORY":"SGP4","SITE":"AFWTR","ARG_OF_PERICENTER":"50.3548","RCS_SIZE":"LARGE","COUNTRY_CODE":"US","PERIOD":"95.436","TLE_LINE1":"1 54162U 22141F   22354.43593443  .00006707  00000-0  43890-3 0  9996","PERIAPSIS":"538.389","APOAPSIS":"540.995","INCLINATION":"53.2181","OBJECT_NAME":"STARLINK-5273","ELEMENT_SET_NO":"999","ECCENTRICITY":"0.00018840","OBJECT_TYPE":"PAYLOAD","CLASSIFICATION_TYPE":"U","DECAY_DATE":null,"RA_OF_ASC_NODE":"250.0573","MEAN_MOTION_DDOT":"0.0000000000000","CENTER_NAME":"EARTH","TLE_LINE2":"2 54162  53.2181 250.0573 0001884  50.3548 309.7610 15.08857479  8297","MEAN_MOTION_DOT":"0.00006707","BSTAR":"0.00043890000000","EPOCH":"2022-12-20T10:27:44.734752","EPHEMERIS_TYPE":"0","MEAN_ANOMALY":"309.7610","REF_FRAME":"TEME","MEAN_MOTION":"15.08857479","NORAD_CAT_ID":"54162","LAUNCH_DATE":"2022-10-28","GP_ID":"221029718","TIME_SYSTEM":"UTC","FILE":"3713130"}];
